NORAD_CAT_ID,OBJECT_NAME,OBJECT_TYPE,EPOCH,MEAN_MOTION,ECCENTRICITY,INCLINATION,RA_OF_ASC_NODE,ARG_OF_PERICENTER,MEAN_ANOMALY,BSTAR,MEAN_MOTION_DOT,MEAN_MOTION_DDOT,TLE_LINE0,TLE_LINE1,TLE_LINE2,SEMIMAJOR_AXIS,PERIOD,APOGEE,PERIGEE,DECAYED
52366.0,STARLINK-3808,PAYLOAD,2022-10-16 07:07:11,15.08837742,0.0002793,53.2173,357.4559,25.8559,334.2573,1.2981e-05,-8.2e-07,0.0,0 STARLINK-3808,1 52366U 22045AM  22289.29665912 -.00000082  00000-0  12981-4 0  9994,2 52366  53.2173 357.4559 0002793  25.8559 334.2573 15.08837742 28662,6917.887,95.438,541.684,537.82,0.0
52366.0,STARLINK-3808,PAYLOAD,2022-10-17 03:47:12,15.08839272,0.0002559,53.2174,353.5911,28.7985,331.3148,1.0024e-06,-2.73e-06,0.0,0 STARLINK-3808,1 52366U 22045AM  22290.15778231 -.00000273  00000-0  10024-5 0  9999,2 52366  53.2174 353.5911 0002559  28.7985 331.3148 15.08839272 28797,6917.8830000000025,95.438,541.518,537.977,0.0
52366.0,STARLINK-3808,PAYLOAD,2022-10-17 11:44:07,15.08843648,0.0002504,53.2171,352.1044,30.2055,329.9081,0.00018666,2.684e-05,0.0,0 STARLINK-3808,1 52366U 22045AM  22290.48898123  .00002684  00000-0  18666-3 0  9993,2 52366  53.2171 352.1044 0002504  30.2055 329.9081 15.08843648 28849,6917.869000000002,95.437,541.466,538.002,0.0
52366.0,STARLINK-3808,PAYLOAD,2022-10-18 09:59:32,15.08835895,0.0002815,53.2172,347.9426,22.6847,337.4269,1.1835e-05,-1e-06,0.0,0 STARLINK-3808,1 52366U 22045AM  22291.41634557 -.00000100  00000-0  11835-4 0  9990,2 52366  53.2172 347.9426 0002815  22.6847 337.4269 15.08835895 28987,6917.893,95.438,541.705,537.811,0.0
52366.0,STARLINK-3808,PAYLOAD,2022-10-18 21:07:14,15.088428,0.0002555,53.2168,345.86,27.6213,332.4915,0.00017575,2.51e-05,0.0,0 STARLINK-3808,1 52366U 22045AM  22291.88002358  .00002510  00000-0  17575-3 0  9991,2 52366  53.2168 345.8600 0002555  27.6213 332.4915 15.08842800 29052,6917.871999999999,95.437,541.504,537.969,0.0
52366.0,STARLINK-3808,PAYLOAD,2022-10-19 09:50:19,15.08839011,0.0002437,53.2165,343.4806,28.5752,331.5374,0.00023763,3.496e-05,0.0,0 STARLINK-3808,1 52366U 22045AM  22292.40994646  .00003496  00000-0  23763-3 0  9990,2 52366  53.2165 343.4806 0002437  28.5752 331.5374 15.08839011 29136,6917.8830000000025,95.438,541.434,538.063,0.0
52366.0,STARLINK-3808,PAYLOAD,2022-10-20 04:54:56,15.0884131,0.0002674,53.2173,339.9129,25.15,334.9622,0.00020965,3.05e-05,0.0,0 STARLINK-3808,1 52366U 22045AM  22293.20482486  .00003050  00000-0  20965-3 0  9990,2 52366  53.2173 339.9129 0002674  25.1500 334.9622 15.08841310 29251,6917.876,95.437,541.591,537.8919999999998,0.0
52366.0,STARLINK-3808,PAYLOAD,2022-10-20 09:41:06,15.088412599999998,0.0002461999999999,53.2173,339.0201,26.5743,333.5375,0.00016822,2.39e-05,0.0,0 STARLINK-3808,1 52366U 22045AM  22293.40354596  .00002390  00000-0  16822-3 0  9995,2 52366  53.2173 339.0201 0002462  26.5743 333.5375 15.08841260 29289,6917.877,95.437,541.445,538.038,0.0
52366.0,STARLINK-3808,PAYLOAD,2022-10-21 09:31:53,15.08845953,0.0002576,53.2168,334.5603,27.8858,332.2271,0.00020385,2.958e-05,0.0,0 STARLINK-3808,1 52366U 22045AM  22294.39714401  .00002958  00000-0  20385-3 0  9998,2 52366  53.2168 334.5603 0002576  27.8858 332.2271 15.08845953 29437,6917.861999999999,95.437,541.509,537.945,0.0
52366.0,STARLINK-3808,PAYLOAD,2022-10-22 09:22:39,15.08845608,0.0002813999999999,53.2167,330.0997,22.497,337.6145,1.4725e-05,-5.4e-07,0.0,0 STARLINK-3808,1 52366U 22045AM  22295.39073834 -.00000054  00000-0  14725-4 0  9995,2 52366  53.2167 330.0997 0002814  22.4970 337.6145 15.08845608 29586,6917.863,95.437,541.675,537.7819999999998,0.0
52366.0,STARLINK-3808,PAYLOAD,2022-10-22 18:54:59,15.08838932,0.0002624,53.2175,328.3153,25.3176,334.7945,1.4521e-05,-5.7e-07,0.0,0 STARLINK-3808,1 52366U 22045AM  22295.78818453 -.00000057  00000-0  14521-4 0  9999,2 52366  53.2175 328.3153 0002624  25.3176 334.7945 15.08838932 29643,6917.884,95.438,541.564,537.933,0.0
52366.0,STARLINK-3808,PAYLOAD,2022-10-23 04:27:17,15.08844385,0.0002577,53.2165,326.531,26.6471,333.4653,0.00011703,1.575e-05,0.0,0 STARLINK-3808,1 52366U 22045AM  22296.18561828  .00001575  00000-0  11703-3 0  9998,2 52366  53.2165 326.5310 0002577  26.6471 333.4653 15.08844385 29704,6917.8669999999975,95.437,541.515,537.9490000000002,0.0
52366.0,STARLINK-3808,PAYLOAD,2022-10-23 10:48:49,15.08851064,0.0002626,53.2166,325.3418,26.3507,333.7618,0.00020879,3.037e-05,0.0,0 STARLINK-3808,1 52366U 22045AM  22296.45057461  .00003037  00000-0  20879-3 0  9990,2 52366  53.2166 325.3418 0002626  26.3507 333.7618 15.08851064 29743,6917.847,95.437,541.528,537.895,0.0
52366.0,STARLINK-3808,PAYLOAD,2022-10-23 18:45:44,15.08858896,0.0002633,53.2164,323.8544,25.4228,334.6894,0.00022201,3.249e-05,0.0,0 STARLINK-3808,1 52366U 22045AM  22296.78176807  .00003249  00000-0  22201-3 0  9998,2 52366  53.2164 323.8544 0002633  25.4228 334.6894 15.08858896 29793,6917.823,95.436,541.509,537.866,0.0
52366.0,STARLINK-3808,PAYLOAD,2022-10-24 12:15:00,15.08826856,0.000272,53.2175,320.5845,22.4775,337.6336,-5.0442e-05,-1.091e-05,0.0,0 STARLINK-3808,1 52366U 22045AM  22297.51042785 -.00001091  00000-0 -50442-4 0  9991,2 52366  53.2175 320.5845 0002720  22.4775 337.6336 15.08826856 29902,6917.920999999999,95.438,541.6669999999998,537.904,0.0
52366.0,STARLINK-3808,PAYLOAD,2022-10-24 18:36:34,15.08818461,0.0002622,53.2175,319.3944,25.3964,334.7156,-8.3526e-05,-1.617e-05,0.0,0 STARLINK-3808,1 52366U 22045AM  22297.77539597 -.00001617  00000-0 -83526-4 0  9994,2 52366  53.2175 319.3944 0002622  25.3964 334.7156 15.08818461 29946,6917.946,95.439,541.625,537.997,0.0
52366.0,STARLINK-3808,PAYLOAD,2022-10-25 04:08:52,15.08823065,0.0002641999999999,53.2176,317.61,24.061,336.0505,-5.5108e-05,-1.165e-05,0.0,0 STARLINK-3808,1 52366U 22045AM  22298.17283503 -.00001165  00000-0 -55108-4 0  9995,2 52366  53.2176 317.6100 0002642  24.0610 336.0505 15.08823065 30006,6917.932,95.439,541.625,537.969,0.0
52366.0,STARLINK-3808,PAYLOAD,2022-10-25 10:30:25,15.08827857,0.0002689,53.2174,316.4204,25.3617,334.7507,-7.0758e-05,-1.414e-05,0.0,0 STARLINK-3808,1 52366U 22045AM  22298.43779464 -.00001414  00000-0 -70758-4 0  9995,2 52366  53.2174 316.4204 0002689  25.3617 334.7507 15.08827857 30042,6917.918000000002,95.438,541.643,537.922,0.0
52366.0,STARLINK-3808,PAYLOAD,2022-10-25 18:27:20,15.08836161,0.0002697,53.2174,314.9336,24.7718,335.3404,-0.00010039,-1.886e-05,0.0,0 STARLINK-3808,1 52366U 22045AM  22298.76899163 -.00001886  00000-0 -10039-3 0  9998,2 52366  53.2174 314.9336 0002697  24.7718 335.3404 15.08836161 30091,6917.892,95.438,541.623,537.891,0.0
52366.0,STARLINK-3808,PAYLOAD,2022-10-25 20:02:44,15.08835474,0.0002703,53.2176,314.6362,24.9751,335.1371,-0.00010321,-1.931e-05,0.0,0 STARLINK-3808,1 52366U 22045AM  22298.83523227 -.00001931  00000-0 -10321-3 0  9996,2 52366  53.2176 314.6362 0002703  24.9751 335.1371 15.08835474 30105,6917.894,95.438,541.629,537.889,0.0
52366.0,STARLINK-3808,PAYLOAD,2022-10-26 08:45:48,15.08836951,0.0002773,53.2174,312.2573,26.8469,333.2666,3.7315e-05,3.05e-06,0.0,0 STARLINK-3808,1 52366U 22045AM  22299.36514862  .00000305  00000-0  37315-4 0  9995,2 52366  53.2174 312.2573 0002773  26.8469 333.2666 15.08836951 30180,6917.89,95.438,541.673,537.836,0.0
52366.0,STARLINK-3808,PAYLOAD,2022-10-26 18:18:07,15.08833036,0.00028,53.2174,310.4731,27.882,332.2321,0.00019821,2.867e-05,0.0,0 STARLINK-3808,1 52366U 22045AM  22299.76258754  .00002867  00000-0  19821-3 0  9990,2 52366  53.2174 310.4731 0002800  27.8820 332.2321 15.08833036 30244,6917.901999999999,95.438,541.7040000000002,537.83,0.0
52366.0,STARLINK-3808,PAYLOAD,2022-10-27 07:01:12,15.08840902,0.0002842,53.2173,308.0945,28.8833,331.2316,0.00019611,2.834e-05,0.0,0 STARLINK-3808,1 52366U 22045AM  22300.29250418  .00002834  00000-0  19611-3 0  9991,2 52366  53.2173 308.0945 0002842  28.8833 331.2316 15.08840902 30326,6917.878000000002,95.437,541.7090000000002,537.7769999999998,0.0
52366.0,STARLINK-3808,PAYLOAD,2022-10-27 18:08:54,15.08840313,0.0002848,53.2172,306.0126,30.1026,330.0129,0.00010653,1.407e-05,0.0,0 STARLINK-3808,1 52366U 22045AM  22300.75618748  .00001407  00000-0  10653-3 0  9998,2 52366  53.2172 306.0126 0002848  30.1026 330.0129 15.08840313 30392,6917.879,95.438,541.715,537.774,0.0
52366.0,STARLINK-3808,PAYLOAD,2022-10-27 22:55:03,15.08848252,0.0002881,53.2173,305.1209,28.3391,331.7758,0.0001197,1.617e-05,0.0,0 STARLINK-3808,1 52366U 22045AM  22300.95490130  .00001617  00000-0  11970-3 0  9999,2 52366  53.2173 305.1209 0002881  28.3391 331.7758 15.08848252 30426,6917.855,95.437,541.7130000000002,537.727,0.0
52366.0,STARLINK-3808,PAYLOAD,2022-10-28 06:51:59,15.088421599999998,0.0002833999999999,53.2171,303.6339,28.5178,331.5969,3.9125e-05,3.34e-06,0.0,0 STARLINK-3808,1 52366U 22045AM  22301.28610562  .00000334  00000-0  39125-4 0  9997,2 52366  53.2171 303.6339 0002834  28.5178 331.5969 15.08842160 30473,6917.874,95.437,541.6990000000002,537.778,0.0
52366.0,STARLINK-3808,PAYLOAD,2022-10-28 19:35:03,15.0885302,0.0002602,53.2169,301.2554,29.3408,330.773,-1.8076e-05,-5.76e-06,0.0,0 STARLINK-3808,1 52366U 22045AM  22301.81601816 -.00000576  00000-0 -18076-4 0  9990,2 52366  53.2169 301.2554 0002602  29.3408 330.7730 15.08853020 30554,6917.840999999999,95.437,541.506,537.906,0.0
52366.0,STARLINK-3808,PAYLOAD,2022-10-29 06:42:45,15.08849785,0.0002762,53.218,299.1749,30.3226,329.7926,-2.3194e-05,-6.58e-06,0.0,0 STARLINK-3808,1 52366U 22045AM  22302.27969806 -.00000658  00000-0 -23194-4 0  9995,2 52366  53.2180 299.1749 0002762  30.3226 329.7926 15.08849785 30621,6917.85,95.437,541.626,537.805,0.0
52366.0,STARLINK-3808,PAYLOAD,2022-10-30 06:33:32,15.08847892,0.0002963,53.2178,294.714,30.6776,329.4389,4.6557e-05,4.53e-06,0.0,0 STARLINK-3808,1 52366U 22045AM  22303.27329293  .00000453  00000-0  46557-4 0  9995,2 52366  53.2178 294.7140 0002963  30.6776 329.4389 15.08847892 30773,6917.856,95.437,541.771,537.672,0.0
